{
  "norad_id": 60356,
  "name": "STARLINK-32278",
  "history": [
    {
      "epoch": "2026-03-28T18:24:38.304864",
      "apogee_km": 476.05391168854385,
      "perigee_km": 474.4045805677515,
      "latitude_deg": 4.338125021610608,
      "longitude_deg": -70.75743903988041,
      "semi_major_axis_km": 6853.366246128147,
      "eccentricity": 0.00012033,
      "inclination_deg": 53.1605,
      "raan_deg": 221.3206,
      "arg_perigee_deg": 90.4601,
      "mean_anomaly_deg": 269.6538,
      "mean_motion_rev_day": 15.30195252
    }
  ]
}